49079,ONEWEB-0289,2021,109.29,148.0,+,87.93,Active,1,LEO,Kazakhstan,UK,Commercial,Communications,Soyuz,1 49079U 21075E   24058.58226144  .00000056  00000+0  10986-3 0  9992,2 49079  87.9261 173.0918 0001815  99.9733 260.1603 13.17649408123500,13.17649408,0.0001815,LEO
49080,ONEWEB-0290,2021,109.29,148.0,+,87.93,Active,1,LEO,Kazakhstan,UK,Commercial,Communications,Soyuz,1 49080U 21075F   24058.56485137  .00000070  00000+0  14777-3 0  9999,2 49080  87.9261 173.0582 0001236 110.4462 249.6802 13.17650324122910,13.17650324,0.0001236,LEO
49081,ONEWEB-0291,2021,109.29,148.0,+,87.93,Active,1,LEO,Kazakhstan,UK,Commercial,Communications,Soyuz,1 49081U 21075G   24058.54904023  .00000085  00000+0  18674-3 0  9994,2 49081  87.9255 173.0882 0001539 114.9232 245.2060 13.17649694122902,13.17649694,0.0001539,LEO
49082,ONEWEB-0293,2021,109.29,148.0,+,87.93,Active,1,LEO,Kazakhstan,UK,Commercial,Communications,Soyuz,1 49082U 21075H   24058.57433263 -.00001487  00000+0 -38636-2 0  9999,2 49082  87.9261 173.0911 0001423 108.2106 251.9180 13.17655218122930,13.17655218,0.0001423,LEO
49083,ONEWEB-0294,2021,109.72,148.0,+,87.9,Active,1,LEO,Kazakhstan,UK,Commercial,Communications,Soyuz,1 49083U 21075J   24058.50820514  .00000235  00000+0  61918-3 0  9990,2 49083  87.9036 157.9755 0001191 121.0187 239.1058 13.12440848124303,13.12440848,0.0001191,LEO
49084,ONEWEB-0295,2021,109.29,148.0,+,87.93,Active,1,LEO,Kazakhstan,UK,Commercial,Communications,Soyuz,1 49084U 21075K   24058.57593687  .00000040  00000+0  69465-4 0  9996,2 49084  87.9262 173.0665 0001652 123.9166 236.2123 13.17649856122892,13.17649856,0.0001652,LEO
49085,ONEWEB-0296,2021,109.72,148.0,+,87.9,Active,1,LEO,Kazakhstan,UK,Commercial,Communications,Soyuz,1 49085U 21075L   24058.56696991  .00000532  00000+0  14438-2 0  9992,2 49085  87.9040 157.9634 0001606 132.9497 227.1767 13.12444391124314,13.12444391,0.0001606,LEO
49086,ONEWEB-0297,2021,109.72,148.0,+,87.91,Active,1,LEO,Kazakhstan,UK,Commercial,Communications,Soyuz,1 49086U 21075M   24058.52249187 -.00000441  00000+0 -12609-2 0  9999,2 49086  87.9046 157.9706 0002075 108.1508 251.9847 13.12441339124919,13.12441339,0.0002075,LEO
